CCSDS_OMM_VERS = 2.0
CREATION_DATE  = 
ORIGINATOR     = 

OBJECT_NAME    = DELTA 2 R/B(1)
OBJECT_ID      = 1990-008B
CENTER_NAME    = EARTH
REF_FRAME      = TEME
TIME_SYSTEM    = UTC
MEAN_ELEMENT_THEORY = SGP/SGP4

EPOCH          = 2025-12-07T21:42:24.037632
MEAN_MOTION    = 15.44680377
ECCENTRICITY   = .01117464
INCLINATION    = 35.6071
RA_OF_ASC_NODE = 51.7455
ARG_OF_PERICENTER = 134.4300
MEAN_ANOMALY   = 226.5641

EPHEMERIS_TYPE = 0
CLASSIFICATION_TYPE = U
NORAD_CAT_ID   = 20453
ELEMENT_SET_NO = 999
REV_AT_EPOCH   = 91188
BSTAR          = .73890677E-3
MEAN_MOTION_DOT = .45316E-3
MEAN_MOTION_DDOT = 0

CCSDS_OMM_VERS = 2.0
CREATION_DATE  = 
ORIGINATOR     = 

OBJECT_NAME    = COSMOS 2058
OBJECT_ID      = 1990-010A
CENTER_NAME    = EARTH
REF_FRAME      = TEME
TIME_SYSTEM    = UTC
MEAN_ELEMENT_THEORY = SGP/SGP4

EPOCH          = 2025-12-07T22:07:27.035616
MEAN_MOTION    = 15.10398295
ECCENTRICITY   = .00082569
INCLINATION    = 82.4650
RA_OF_ASC_NODE = 137.7697
ARG_OF_PERICENTER = 293.6355
MEAN_ANOMALY   = 66.4008

EPHEMERIS_TYPE = 0
CLASSIFICATION_TYPE = U
NORAD_CAT_ID   = 20465
ELEMENT_SET_NO = 999
REV_AT_EPOCH   = 92838
BSTAR          = .39596727E-3
MEAN_MOTION_DOT = .6535E-4
MEAN_MOTION_DDOT = 0

CCSDS_OMM_VERS = 2.0
CREATION_DATE  = 
ORIGINATOR     = 

OBJECT_NAME    = SL-14 R/B
OBJECT_ID      = 1990-010B
CENTER_NAME    = EARTH
REF_FRAME      = TEME
TIME_SYSTEM    = UTC
MEAN_ELEMENT_THEORY = SGP/SGP4

EPOCH          = 2025-12-07T18:05:49.664256
MEAN_MOTION    = 14.83464510
ECCENTRICITY   = .00184425
INCLINATION    = 82.5019
RA_OF_ASC_NODE = 353.7299
ARG_OF_PERICENTER = 240.7141
MEAN_ANOMALY   = 119.2231

EPHEMERIS_TYPE = 0
CLASSIFICATION_TYPE = U
NORAD_CAT_ID   = 20466
ELEMENT_SET_NO = 999
REV_AT_EPOCH   = 91485
BSTAR          = .96812159E-4
MEAN_MOTION_DOT = .821E-5
MEAN_MOTION_DDOT = 0

CCSDS_OMM_VERS = 2.0
CREATION_DATE  = 
ORIGINATOR     = 

OBJECT_NAME    = SL-14 R/B
OBJECT_ID      = 1990-018B
CENTER_NAME    = EARTH
REF_FRAME      = TEME
TIME_SYSTEM    = UTC
MEAN_ELEMENT_THEORY = SGP/SGP4

EPOCH          = 2025-12-07T22:53:07.971936
MEAN_MOTION    = 14.82038482
ECCENTRICITY   = .00173882
INCLINATION    = 82.5205
RA_OF_ASC_NODE = 308.8383
ARG_OF_PERICENTER = 38.3801
MEAN_ANOMALY   = 321.8647

EPHEMERIS_TYPE = 0
CLASSIFICATION_TYPE = U
NORAD_CAT_ID   = 20511
ELEMENT_SET_NO = 999
REV_AT_EPOCH   = 90899
BSTAR          = .10279641E-3
MEAN_MOTION_DOT = .841E-5
MEAN_MOTION_DDOT = 0

CCSDS_OMM_VERS = 2.0
CREATION_DATE  = 
ORIGINATOR     = 

OBJECT_NAME    = HST
OBJECT_ID      = 1990-037B
CENTER_NAME    = EARTH
REF_FRAME      = TEME
TIME_SYSTEM    = UTC
MEAN_ELEMENT_THEORY = SGP/SGP4

EPOCH          = 2025-12-07T05:46:13.384416
MEAN_MOTION    = 15.27934350
ECCENTRICITY   = .00019299
INCLINATION    = 28.4700
RA_OF_ASC_NODE = 309.9169
ARG_OF_PERICENTER = 174.2687
MEAN_ANOMALY   = 185.7931

EPHEMERIS_TYPE = 0
CLASSIFICATION_TYPE = U
NORAD_CAT_ID   = 20580
ELEMENT_SET_NO = 999
REV_AT_EPOCH   = 75915
BSTAR          = .4017333E-3
MEAN_MOTION_DOT = .11505E-3
MEAN_MOTION_DDOT = 0

CCSDS_OMM_VERS = 2.0
CREATION_DATE  = 
ORIGINATOR     = 

OBJECT_NAME    = SL-16 R/B
OBJECT_ID      = 1990-046B
CENTER_NAME    = EARTH
REF_FRAME      = TEME
TIME_SYSTEM    = UTC
MEAN_ELEMENT_THEORY = SGP/SGP4

EPOCH          = 2025-12-07T20:50:06.814752
MEAN_MOTION    = 14.15000621
ECCENTRICITY   = .00118724
INCLINATION    = 70.9986
RA_OF_ASC_NODE = 130.7519
ARG_OF_PERICENTER = 82.3935
MEAN_ANOMALY   = 277.8536

EPHEMERIS_TYPE = 0
CLASSIFICATION_TYPE = U
NORAD_CAT_ID   = 20625
ELEMENT_SET_NO = 999
REV_AT_EPOCH   = 83540
BSTAR          = .80282024E-4
MEAN_MOTION_DOT = .108E-5
MEAN_MOTION_DDOT = 0

CCSDS_OMM_VERS = 2.0
CREATION_DATE  = 
ORIGINATOR     = 

OBJECT_NAME    = COSMOS 2084
OBJECT_ID      = 1990-055A
CENTER_NAME    = EARTH
REF_FRAME      = TEME
TIME_SYSTEM    = UTC
MEAN_ELEMENT_THEORY = SGP/SGP4

EPOCH          = 2025-12-07T23:36:09.447552
MEAN_MOTION    = 15.04971636
ECCENTRICITY   = .0032473
INCLINATION    = 62.7913
RA_OF_ASC_NODE = 288.1986
ARG_OF_PERICENTER = 174.1245
MEAN_ANOMALY   = 186.0243

EPHEMERIS_TYPE = 0
CLASSIFICATION_TYPE = U
NORAD_CAT_ID   = 20663
ELEMENT_SET_NO = 999
REV_AT_EPOCH   = 92251
BSTAR          = .31915416E-3
MEAN_MOTION_DOT = .4397E-4
MEAN_MOTION_DDOT = 0

CCSDS_OMM_VERS = 2.0
CREATION_DATE  = 
ORIGINATOR     = 

OBJECT_NAME    = SL-6 R/B(2)
OBJECT_ID      = 1990-055D
CENTER_NAME    = EARTH
REF_FRAME      = TEME
TIME_SYSTEM    = UTC
MEAN_ELEMENT_THEORY = SGP/SGP4

EPOCH          = 2025-12-07T23:27:14.041440
MEAN_MOTION    = 15.03044113
ECCENTRICITY   = .00122535
INCLINATION    = 62.7824
RA_OF_ASC_NODE = 205.5979
ARG_OF_PERICENTER = 305.2390
MEAN_ANOMALY   = 54.7562

EPHEMERIS_TYPE = 0
CLASSIFICATION_TYPE = U
NORAD_CAT_ID   = 20666
ELEMENT_SET_NO = 999
REV_AT_EPOCH   = 92440
BSTAR          = .23384126E-3
MEAN_MOTION_DOT = .2974E-4
MEAN_MOTION_DDOT = 0

CCSDS_OMM_VERS = 2.0
CREATION_DATE  = 
ORIGINATOR     = 

OBJECT_NAME    = SL-8 R/B
OBJECT_ID      = 1990-078B
CENTER_NAME    = EARTH
REF_FRAME      = TEME
TIME_SYSTEM    = UTC
MEAN_ELEMENT_THEORY = SGP/SGP4

EPOCH          = 2025-12-07T22:47:30.987744
MEAN_MOTION    = 14.85644938
ECCENTRICITY   = .03735086
INCLINATION    = 82.9048
RA_OF_ASC_NODE = 333.5969
ARG_OF_PERICENTER = 322.0223
MEAN_ANOMALY   = 35.5176

EPHEMERIS_TYPE = 0
CLASSIFICATION_TYPE = U
NORAD_CAT_ID   = 20775
ELEMENT_SET_NO = 999
REV_AT_EPOCH   = 79566
BSTAR          = .89400789E-3
MEAN_MOTION_DOT = .28862E-3
MEAN_MOTION_DDOT = 0

CCSDS_OMM_VERS = 2.0
CREATION_DATE  = 
ORIGINATOR     = 

OBJECT_NAME    = SL-8 R/B
OBJECT_ID      = 1991-006B
CENTER_NAME    = EARTH
REF_FRAME      = TEME
TIME_SYSTEM    = UTC
MEAN_ELEMENT_THEORY = SGP/SGP4

EPOCH          = 2025-12-07T19:29:17.206080
MEAN_MOTION    = 13.77489327
ECCENTRICITY   = .00213672
INCLINATION    = 82.9431
RA_OF_ASC_NODE = 238.3779
ARG_OF_PERICENTER = 294.4675
MEAN_ANOMALY   = 129.1352

EPHEMERIS_TYPE = 0
CLASSIFICATION_TYPE = U
NORAD_CAT_ID   = 21088
ELEMENT_SET_NO = 999
REV_AT_EPOCH   = 75142
BSTAR          = .11106022E-3
MEAN_MOTION_DOT = .126E-5
MEAN_MOTION_DDOT = 0

CCSDS_OMM_VERS = 2.0
CREATION_DATE  = 
ORIGINATOR     = 

OBJECT_NAME    = OKEAN-3
OBJECT_ID      = 1991-039A
CENTER_NAME    = EARTH
REF_FRAME      = TEME
TIME_SYSTEM    = UTC
MEAN_ELEMENT_THEORY = SGP/SGP4

EPOCH          = 2025-12-07T16:37:24.174624
MEAN_MOTION    = 15.04068178
ECCENTRICITY   = .00128122
INCLINATION    = 82.5173
RA_OF_ASC_NODE = 65.9325
ARG_OF_PERICENTER = 284.8434
MEAN_ANOMALY   = 75.1373

EPHEMERIS_TYPE = 0
CLASSIFICATION_TYPE = U
NORAD_CAT_ID   = 21397
ELEMENT_SET_NO = 999
REV_AT_EPOCH   = 85120
BSTAR          = .38072223E-3
MEAN_MOTION_DOT = .5304E-4
MEAN_MOTION_DDOT = 0

CCSDS_OMM_VERS = 2.0
CREATION_DATE  = 
ORIGINATOR     = 

OBJECT_NAME    = COSMOS 2151
OBJECT_ID      = 1991-042A
CENTER_NAME    = EARTH
REF_FRAME      = TEME
TIME_SYSTEM    = UTC
MEAN_ELEMENT_THEORY = SGP/SGP4

EPOCH          = 2025-12-07T22:51:46.202112
MEAN_MOTION    = 14.99659604
ECCENTRICITY   = .0013012
INCLINATION    = 82.4959
RA_OF_ASC_NODE = 172.1166
ARG_OF_PERICENTER = 15.4740
MEAN_ANOMALY   = 344.6879

EPHEMERIS_TYPE = 0
CLASSIFICATION_TYPE = U
NORAD_CAT_ID   = 21422
ELEMENT_SET_NO = 999
REV_AT_EPOCH   = 84944
BSTAR          = .24136677E-3
MEAN_MOTION_DOT = .3005E-4
MEAN_MOTION_DDOT = 0

