DELTA 2 R/B(1)          
1 20453U 90008B   25341.90444488  .00045316  00000+0  73891-3 0  9996
2 20453  35.6071  51.7455 0111746 134.4300 226.5641 15.44680377911888
COSMOS 2058             
1 20465U 90010A   25341.92184069  .00006535  00000+0  39597-3 0  9995
2 20465  82.4650 137.7697 0008256 293.6355  66.4008 15.10398295928385
SL-14 R/B               
1 20466U 90010B   25341.75404704  .00000821  00000+0  96812-4 0  9994
2 20466  82.5019 353.7299 0018442 240.7141 119.2231 14.83464510914853
SL-14 R/B               
1 20511U 90018B   25341.95356449  .00000841  00000+0  10280-3 0  9993
2 20511  82.5205 308.8383 0017388  38.3801 321.8647 14.82038482908992
HST                     
1 20580U 90037B   25341.24043269  .00011505  00000+0  40173-3 0  9998
2 20580  28.4700 309.9169 0001929 174.2687 185.7931 15.27934350759151
SL-16 R/B               
1 20625U 90046B   25341.86813443  .00000108  00000+0  80282-4 0  9998
2 20625  70.9986 130.7519 0011872  82.3935 277.8536 14.15000621835409
COSMOS 2084             
1 20663U 90055A   25341.98344268  .00004397  00000+0  31915-3 0  9999
2 20663  62.7913 288.1986 0032473 174.1245 186.0243 15.04971636922517
SL-6 R/B(2)             
1 20666U 90055D   25341.97724585  .00002974  00000+0  23384-3 0  9995
2 20666  62.7824 205.5979 0012253 305.2390  54.7562 15.03044113924403
SL-8 R/B                
1 20775U 90078B   25341.94966421  .00028862  00000+0  89401-3 0  9991
2 20775  82.9048 333.5969 0373508 322.0223  35.5176 14.85644938795664
SL-8 R/B                
1 21088U 91006B   25341.81200470  .00000126  00000+0  11106-3 0  9992
2 21088  82.9431 238.3779 0021367 294.4675 129.1352 13.77489327751426
OKEAN-3                 
1 21397U 91039A   25341.69264091  .00005304  00000+0  38072-3 0  9990
2 21397  82.5173  65.9325 0012812 284.8434  75.1373 15.04068178851209
COSMOS 2151             
1 21422U 91042A   25341.95261808  .00003005  00000+0  24137-3 0  9998
2 21422  82.4959 172.1166 0013012  15.4740 344.6879 14.99659604849445
